[{"OBJECT_NAME":"TRANSPORTER-12 OBJECT AZ","OBJECT_ID":"2025-009AZ","EPOCH":"2026-03-09T17:02:46.667040","MEAN_MOTION":15.30349724,"ECCENTRICITY":9.87e-5,"INCLINATION":97.3981,"RA_OF_ASC_NODE":151.9913,"ARG_OF_PERICENTER":45.3581,"MEAN_ANOMALY":314.774,"EPHEMERIS_TYPE":0,"CLASSIFICATION_TYPE":"U","NORAD_CAT_ID":62656,"ELEMENT_SET_NO":999,"REV_AT_EPOCH":6379,"BSTAR":0.00054902545,"MEAN_MOTION_DOT":0.00016057,"MEAN_MOTION_DDOT":0},{"OBJECT_NAME":"STARLINK-34363","OBJECT_ID":"2025-133AB","EPOCH":"2026-03-09T10:47:30.152256","MEAN_MOTION":15.30124969,"ECCENTRICITY":0.0001463,"INCLINATION":53.161,"RA_OF_ASC_NODE":117.7629,"ARG_OF_PERICENTER":77.999,"MEAN_ANOMALY":282.1175,"EPHEMERIS_TYPE":0,"CLASSIFICATION_TYPE":"U","NORAD_CAT_ID":64497,"ELEMENT_SET_NO":999,"REV_AT_EPOCH":4115,"BSTAR":0.00045496528,"MEAN_MOTION_DOT":0.00013108,"MEAN_MOTION_DDOT":0}]
